CAS-2T & KS-1Q          
1 41847U 16066G   21036.91247195  .00000062  00000-0  20495-4 0  9995
2 41847  98.6218  95.3755 0364394 252.8713 103.2273 14.38142712222974
NAYIF-1 (EO-88)         
1 42017U 17008BX  21036.91720084  .00001796  00000-0  69526-4 0  9998
2 42017  97.3332 106.8283 0005412 200.0828 160.0199 15.27460886221179
ZHUHAI-1 02 (CAS-4B)    
1 42759U 17034B   21036.81465106  .00000310  00000-0  32101-4 0  9990
2 42759  43.0166 184.7039 0009058  51.7013  94.7078 15.10061412201245
ZHUHAI-1 01 (CAS-4A)    
1 42761U 17034D   21036.81283959  .00000300  00000-0  31439-4 0  9999
2 42761  43.0165 183.8591 0009188  53.7838  92.7726 15.10142103201246
MAX VALIER SAT          
1 42778U 17036P   21036.86867409  .00000973  00000-0  43995-4 0  9998
2 42778  97.2750  89.6878 0010311 281.5115  78.4964 15.23189323201250
RADFXSAT (FOX-1B)       
1 43017U 17073E   21036.71622982  .00001137  00000-0  92769-4 0  9991
2 43017  97.7165 305.8748 0256167  10.3995 350.2375 14.79297285173641
FOX-1D (AO-92)          
1 43137U 18004AC  21036.64403400  .00001398  00000-0  59281-4 0  9994
2 43137  97.4215 111.9783 0007804 324.1478  35.9235 15.24778426170579
DIWATA-2B               
1 43678U 18084H   21036.91454880  .00000500  00000-0  55364-4 0  9992
2 43678  97.9054 161.6796 0011362 121.8734 238.3591 14.91708170123824
ES'HAIL 2               
1 43700U 18090A   21036.22410378  .00000140  00000-0  00000-0 0  9996
2 43700   0.0141  98.2194 0002194 264.6795 239.1284  1.00272722  8044
FOX-1CLIFF (AO-95)      
1 43770U 18099N   21036.68522489  .00000708  00000-0  69477-4 0  9996
2 43770  97.6812 109.6973 0015747 134.4150 225.8363 14.95189285118767
ITASAT 1                
1 43786U 18099AE  21036.69801042  .00000205  00000-0  23652-4 0  9996
2 43786  97.6831 110.2961 0016384 128.1722 232.0978 14.95502607118795
JY1SAT (JO-97)          
1 43803U 18099AX  21036.68234566  .00000877  00000-0  83707-4 0  9998
2 43803  97.6790 110.0507 0016480 128.4937 231.7765 14.95719119118799
PSAT2 (NO-104)          
1 44354U 19036R   21036.91707246  .00008641  00000-0  11650-3 0  9992
2 44354  28.5311 281.4562 0341651 294.0557  62.4646 15.09287019 89054
BRICSAT2 (NO-103)       
1 44355U 19036S   21036.89864664  .00019708  00000-0  24038-3 0  9998
2 44355  28.5281 254.7284 0298885 337.5750  21.2018 15.20376637 89327
JAISAT-1                
1 44419U 19038F   21036.87948897  .00001169  00000-0  68966-4 0  9991
2 44419  97.5712   2.2482 0022523  48.8021 311.5147 15.13352303 87890
DUCHIFAT-3              
1 44854U 19089C   21036.67349793  .00000514  00000-0  47694-4 0  9996
2 44854  36.9651 159.8477 0006671 154.4825 205.6252 14.99316676 63314
RS-44 & BREEZE-KM R/B   
1 44909U 19096E   21036.73376267  .00000032  00000-0  79732-4 0  9991
2 44909  82.5209 200.3120 0217986  41.3061 320.4300 12.79708443 52026
ORBITAL FACTORY 2 (OF-2)
1 45113U 19071C   21036.78789978  .00003137  00000-0  10281-3 0  9996
2 45113  51.6431 315.4168 0012483 174.4718 185.6405 15.34728111 56940
HUSKYSAT-1              
1 45119U 19071J   21036.80496829  .00002144  00000-0  73617-4 0  9995
2 45119  51.6430 314.7792 0011849 171.0406 189.0790 15.34839074 56948
BY70-2                  
1 45857U 20042B   21036.79791124  .00000988  00000-0  14862-3 0  9998
2 45857  97.9950 113.8953 0009585 274.8152  85.1961 14.76667048 32112
SALSAT                  
1 46495U 20068K   21036.94360685  .00000168  00000-0  16911-4 0  9994
2 46495  97.6836 335.3226 0017938 150.9387 209.2837 15.03344617 19571
BY70-3                  
1 46839U 20079N   21036.87874706  .00002825  00000-0  91679-4 0  9990
2 46839  97.2544 113.3452 0006029 330.0138 140.1400 15.32761867 14042
OSCAR 7 (AO-7)          
1 07530U 74089B   21036.68336230 -.00000027  00000-0  11884-3 0  9991
2 07530 101.8369  11.4167 0011981 275.9590 256.5157 12.53647205115218
